STARLINK-36824          
1 67953U 26037X   26082.50003471  .00081174  00000+0  13782-2 0  9999
2 67953  42.9993 115.2771 0001226 278.6970  83.4611 15.50516264  5410
STARLINK-36869          
1 67954U 26037Y   26082.50003471  .00087992  00000+0  14927-2 0  9996
2 67954  42.9993 115.2695 0001260 289.0572  75.9491 15.50506974  5417
STARLINK-36872          
1 67955U 26037Z   26082.50003471 -.01860264  00000+0 -28920-1 0  9998
2 67955  42.9996 114.3822 0001206 280.5484  82.7051 15.56459028  5412
STARLINK-36918          
1 67956U 26037AA  26082.50003471 -.01671162  00000+0 -29176-1 0  9990
2 67956  42.9993 114.5716 0001270 280.8768   6.3450 15.52976752  5412
STARLINK-36829          
1 67957U 26037AB  26082.50003471  .00095772  00000+0  16234-2 0  9997
2 67957  42.9998 114.8130 0000973 305.3775 243.8446 15.50492341  5419
STARLINK-36799          
1 67958U 26037AC  26082.50003471 -.01844688  00000+0 -26088-1 0  9996
2 67958  42.9998 114.2335 0001329 287.6920 135.7901 15.58920488  5412
STARLINK-36834          
1 67959U 26037AD  26082.50003471  .00102988  00000+0  17419-2 0  9993
2 67959  42.9999 114.7739 0001620 281.1499 283.5642 15.50520895  5415
STARLINK-36841          
1 67960U 26037AE  26082.50003471  .00112209  00000+0  18962-2 0  9996
2 67960  42.9999 114.7190 0001073 304.6989 282.2133 15.50505283  5410
STARLINK-36912          
1 67961U 26038A   26082.50003471 -.02173428  00000+0 -53779-1 0  9996
2 67961  97.2863  93.3393 0002156  96.3941 157.0074 15.44154962  5428
STARLINK-36881          
1 67962U 26038B   26082.50003471 -.02185581  00000+0 -54229-1 0  9991
2 67962  97.2855  93.3449 0001849  89.0527 177.0417 15.44098715  5425
STARLINK-36357          
1 67963U 26038C   26082.50003471  .00079530  00000+0  14517-2 0  9991
2 67963  97.2856  93.3097 0001117 120.1495  69.3496 15.49139773  5420
STARLINK-36349          
1 67964U 26038D   26082.50003471  .00076634  00000+0  13992-2 0  9990
2 67964  97.2856  93.3061 0000992 111.7042  70.6248 15.49145904  5429
STARLINK-36806          
1 67965U 26038E   26082.50003471 -.02222641  00000+0 -53064-1 0  9999
2 67965  97.2857  93.3570 0002100 119.3172 185.2629 15.45288243  5423
STARLINK-36820          
1 67966U 26038F   26082.50003471 -.02218765  00000+0 -52782-1 0  9998
2 67966  97.2853  93.3645 0001325 126.0415 191.7740 15.45393964  5429
STARLINK-36819          
1 67967U 26038G   26082.44503558  .00085094  00000+0  15447-2 0  9994
2 67967  97.2850  93.1497 0001330  56.3935 303.7443 15.49275569  5337
STARLINK-36812          
1 67968U 26038H   26082.50003471 -.02213765  00000+0 -50832-1 0  9999
2 67968  97.2857  93.3747 0001568 117.6032 221.9259 15.46407928  5426
STARLINK-36709          
1 67969U 26038J   26082.50003471 -.02249271  00000+0 -48519-1 0  9990
2 67969  97.2856  93.3788 0001176 108.7284 242.8660 15.48265983  5429
