[{"OBJECT_NAME":"STARLINK-36824","OBJECT_ID":"2026-037X","EPOCH":"2026-03-23T12:00:02.998944","MEAN_MOTION":15.50516264,"ECCENTRICITY":0.0001226,"INCLINATION":42.9993,"RA_OF_ASC_NODE":115.2771,"ARG_OF_PERICENTER":278.697,"MEAN_ANOMALY":83.4611,"EPHEMERIS_TYPE":0,"CLASSIFICATION_TYPE":"U","NORAD_CAT_ID":67953,"ELEMENT_SET_NO":999,"REV_AT_EPOCH":541,"BSTAR":0.0013782,"MEAN_MOTION_DOT":0.00081174,"MEAN_MOTION_DDOT":0},{"OBJECT_NAME":"STARLINK-36869","OBJECT_ID":"2026-037Y","EPOCH":"2026-03-23T12:00:02.998944","MEAN_MOTION":15.50506974,"ECCENTRICITY":0.000126,"INCLINATION":42.9993,"RA_OF_ASC_NODE":115.2695,"ARG_OF_PERICENTER":289.0572,"MEAN_ANOMALY":75.9491,"EPHEMERIS_TYPE":0,"CLASSIFICATION_TYPE":"U","NORAD_CAT_ID":67954,"ELEMENT_SET_NO":999,"REV_AT_EPOCH":541,"BSTAR":0.0014927,"MEAN_MOTION_DOT":0.00087992,"MEAN_MOTION_DDOT":0},{"OBJECT_NAME":"STARLINK-36872","OBJECT_ID":"2026-037Z","EPOCH":"2026-03-23T12:00:02.998944","MEAN_MOTION":15.56459028,"ECCENTRICITY":0.0001206,"INCLINATION":42.9996,"RA_OF_ASC_NODE":114.3822,"ARG_OF_PERICENTER":280.5484,"MEAN_ANOMALY":82.7051,"EPHEMERIS_TYPE":0,"CLASSIFICATION_TYPE":"U","NORAD_CAT_ID":67955,"ELEMENT_SET_NO":999,"REV_AT_EPOCH":541,"BSTAR":-0.02892,"MEAN_MOTION_DOT":-0.01860264,"MEAN_MOTION_DDOT":0},{"OBJECT_NAME":"STARLINK-36918","OBJECT_ID":"2026-037AA","EPOCH":"2026-03-23T12:00:02.998944","MEAN_MOTION":15.52976752,"ECCENTRICITY":0.000127,"INCLINATION":42.9993,"RA_OF_ASC_NODE":114.5716,"ARG_OF_PERICENTER":280.8768,"MEAN_ANOMALY":6.345,"EPHEMERIS_TYPE":0,"CLASSIFICATION_TYPE":"U","NORAD_CAT_ID":67956,"ELEMENT_SET_NO":999,"REV_AT_EPOCH":541,"BSTAR":-0.029176,"MEAN_MOTION_DOT":-0.01671162,"MEAN_MOTION_DDOT":0},{"OBJECT_NAME":"STARLINK-36829","OBJECT_ID":"2026-037AB","EPOCH":"2026-03-23T12:00:02.998944","MEAN_MOTION":15.50492341,"ECCENTRICITY":9.73e-5,"INCLINATION":42.9998,"RA_OF_ASC_NODE":114.813,"ARG_OF_PERICENTER":305.3775,"MEAN_ANOMALY":243.8446,"EPHEMERIS_TYPE":0,"CLASSIFICATION_TYPE":"U","NORAD_CAT_ID":67957,"ELEMENT_SET_NO":999,"REV_AT_EPOCH":541,"BSTAR":0.0016234,"MEAN_MOTION_DOT":0.00095772,"MEAN_MOTION_DDOT":0},{"OBJECT_NAME":"STARLINK-36799","OBJECT_ID":"2026-037AC","EPOCH":"2026-03-23T12:00:02.998944","MEAN_MOTION":15.58920488,"ECCENTRICITY":0.0001329,"INCLINATION":42.9998,"RA_OF_ASC_NODE":114.2335,"ARG_OF_PERICENTER":287.692,"MEAN_ANOMALY":135.7901,"EPHEMERIS_TYPE":0,"CLASSIFICATION_TYPE":"U","NORAD_CAT_ID":67958,"ELEMENT_SET_NO":999,"REV_AT_EPOCH":541,"BSTAR":-0.026088,"MEAN_MOTION_DOT":-0.01844688,"MEAN_MOTION_DDOT":0},{"OBJECT_NAME":"STARLINK-36834","OBJECT_ID":"2026-037AD","EPOCH":"2026-03-23T12:00:02.998944","MEAN_MOTION":15.50520895,"ECCENTRICITY":0.000162,"INCLINATION":42.9999,"RA_OF_ASC_NODE":114.7739,"ARG_OF_PERICENTER":281.1499,"MEAN_ANOMALY":283.5642,"EPHEMERIS_TYPE":0,"CLASSIFICATION_TYPE":"U","NORAD_CAT_ID":67959,"ELEMENT_SET_NO":999,"REV_AT_EPOCH":541,"BSTAR":0.0017419,"MEAN_MOTION_DOT":0.00102988,"MEAN_MOTION_DDOT":0},{"OBJECT_NAME":"STARLINK-36841","OBJECT_ID":"2026-037AE","EPOCH":"2026-03-23T12:00:02.998944","MEAN_MOTION":15.50505283,"ECCENTRICITY":0.0001073,"INCLINATION":42.9999,"RA_OF_ASC_NODE":114.719,"ARG_OF_PERICENTER":304.6989,"MEAN_ANOMALY":282.2133,"EPHEMERIS_TYPE":0,"CLASSIFICATION_TYPE":"U","NORAD_CAT_ID":67960,"ELEMENT_SET_NO":999,"REV_AT_EPOCH":541,"BSTAR":0.0018962,"MEAN_MOTION_DOT":0.00112209,"MEAN_MOTION_DDOT":0},{"OBJECT_NAME":"STARLINK-36912","OBJECT_ID":"2026-038A","EPOCH":"2026-03-23T12:00:02.998944","MEAN_MOTION":15.44154962,"ECCENTRICITY":0.0002156,"INCLINATION":97.2863,"RA_OF_ASC_NODE":93.3393,"ARG_OF_PERICENTER":96.3941,"MEAN_ANOMALY":157.0074,"EPHEMERIS_TYPE":0,"CLASSIFICATION_TYPE":"U","NORAD_CAT_ID":67961,"ELEMENT_SET_NO":999,"REV_AT_EPOCH":542,"BSTAR":-0.053779,"MEAN_MOTION_DOT":-0.02173428,"MEAN_MOTION_DDOT":0},{"OBJECT_NAME":"STARLINK-36881","OBJECT_ID":"2026-038B","EPOCH":"2026-03-23T12:00:02.998944","MEAN_MOTION":15.44098715,"ECCENTRICITY":0.0001849,"INCLINATION":97.2855,"RA_OF_ASC_NODE":93.3449,"ARG_OF_PERICENTER":89.0527,"MEAN_ANOMALY":177.0417,"EPHEMERIS_TYPE":0,"CLASSIFICATION_TYPE":"U","NORAD_CAT_ID":67962,"ELEMENT_SET_NO":999,"REV_AT_EPOCH":542,"BSTAR":-0.054229,"MEAN_MOTION_DOT":-0.02185581,"MEAN_MOTION_DDOT":0},{"OBJECT_NAME":"STARLINK-36357","OBJECT_ID":"2026-038C","EPOCH":"2026-03-23T12:00:02.998944","MEAN_MOTION":15.49139773,"ECCENTRICITY":0.0001117,"INCLINATION":97.2856,"RA_OF_ASC_NODE":93.3097,"ARG_OF_PERICENTER":120.1495,"MEAN_ANOMALY":69.3496,"EPHEMERIS_TYPE":0,"CLASSIFICATION_TYPE":"U","NORAD_CAT_ID":67963,"ELEMENT_SET_NO":999,"REV_AT_EPOCH":542,"BSTAR":0.0014517,"MEAN_MOTION_DOT":0.0007953,"MEAN_MOTION_DDOT":0},{"OBJECT_NAME":"STARLINK-36349","OBJECT_ID":"2026-038D","EPOCH":"2026-03-23T12:00:02.998944","MEAN_MOTION":15.49145904,"ECCENTRICITY":9.92e-5,"INCLINATION":97.2856,"RA_OF_ASC_NODE":93.3061,"ARG_OF_PERICENTER":111.7042,"MEAN_ANOMALY":70.6248,"EPHEMERIS_TYPE":0,"CLASSIFICATION_TYPE":"U","NORAD_CAT_ID":67964,"ELEMENT_SET_NO":999,"REV_AT_EPOCH":542,"BSTAR":0.0013992,"MEAN_MOTION_DOT":0.00076634,"MEAN_MOTION_DDOT":0},{"OBJECT_NAME":"STARLINK-36806","OBJECT_ID":"2026-038E","EPOCH":"2026-03-23T12:00:02.998944","MEAN_MOTION":15.45288243,"ECCENTRICITY":0.00021,"INCLINATION":97.2857,"RA_OF_ASC_NODE":93.357,"ARG_OF_PERICENTER":119.3172,"MEAN_ANOMALY":185.2629,"EPHEMERIS_TYPE":0,"CLASSIFICATION_TYPE":"U","NORAD_CAT_ID":67965,"ELEMENT_SET_NO":999,"REV_AT_EPOCH":542,"BSTAR":-0.053064,"MEAN_MOTION_DOT":-0.02222641,"MEAN_MOTION_DDOT":0},{"OBJECT_NAME":"STARLINK-36820","OBJECT_ID":"2026-038F","EPOCH":"2026-03-23T12:00:02.998944","MEAN_MOTION":15.45393964,"ECCENTRICITY":0.0001325,"INCLINATION":97.2853,"RA_OF_ASC_NODE":93.3645,"ARG_OF_PERICENTER":126.0415,"MEAN_ANOMALY":191.774,"EPHEMERIS_TYPE":0,"CLASSIFICATION_TYPE":"U","NORAD_CAT_ID":67966,"ELEMENT_SET_NO":999,"REV_AT_EPOCH":542,"BSTAR":-0.052782,"MEAN_MOTION_DOT":-0.02218765,"MEAN_MOTION_DDOT":0},{"OBJECT_NAME":"STARLINK-36819","OBJECT_ID":"2026-038G","EPOCH":"2026-03-23T10:40:51.074112","MEAN_MOTION":15.49275569,"ECCENTRICITY":0.000133,"INCLINATION":97.285,"RA_OF_ASC_NODE":93.1497,"ARG_OF_PERICENTER":56.3935,"MEAN_ANOMALY":303.7443,"EPHEMERIS_TYPE":0,"CLASSIFICATION_TYPE":"U","NORAD_CAT_ID":67967,"ELEMENT_SET_NO":999,"REV_AT_EPOCH":533,"BSTAR":0.0015447,"MEAN_MOTION_DOT":0.00085094,"MEAN_MOTION_DDOT":0},{"OBJECT_NAME":"STARLINK-36812","OBJECT_ID":"2026-038H","EPOCH":"2026-03-23T12:00:02.998944","MEAN_MOTION":15.46407928,"ECCENTRICITY":0.0001568,"INCLINATION":97.2857,"RA_OF_ASC_NODE":93.3747,"ARG_OF_PERICENTER":117.6032,"MEAN_ANOMALY":221.9259,"EPHEMERIS_TYPE":0,"CLASSIFICATION_TYPE":"U","NORAD_CAT_ID":67968,"ELEMENT_SET_NO":999,"REV_AT_EPOCH":542,"BSTAR":-0.050832,"MEAN_MOTION_DOT":-0.02213765,"MEAN_MOTION_DDOT":0},{"OBJECT_NAME":"STARLINK-36709","OBJECT_ID":"2026-038J","EPOCH":"2026-03-23T12:00:02.998944","MEAN_MOTION":15.48265983,"ECCENTRICITY":0.0001176,"INCLINATION":97.2856,"RA_OF_ASC_NODE":93.3788,"ARG_OF_PERICENTER":108.7284,"MEAN_ANOMALY":242.866,"EPHEMERIS_TYPE":0,"CLASSIFICATION_TYPE":"U","NORAD_CAT_ID":67969,"ELEMENT_SET_NO":999,"REV_AT_EPOCH":542,"BSTAR":-0.048519,"MEAN_MOTION_DOT":-0.02249271,"MEAN_MOTION_DDOT":0}]
